{
    "links": {
        "self": "http://www.neowsapp.com/rest/v1/neo/3010734?api_key=iIulBulltgU6a56xZRHN4H3l9WmuAYTsLGpBGhQ2"
    },
    "id": "3010734",
    "neo_reference_id": "3010734",
    "name": "(1997 UR)",
    "designation": "1997 UR",
    "nasa_jpl_url": "http://ssd.jpl.nasa.gov/sbdb.cgi?sstr=3010734",
    "absolute_magnitude_h": 23.2,
    "estimated_diameter": {
        "kilometers": {
            "estimated_diameter_min": 0.0608912622,
            "estimated_diameter_max": 0.1361570015
        },
        "meters": {
            "estimated_diameter_min": 60.8912622106,
            "estimated_diameter_max": 136.1570015386
        },
        "miles": {
            "estimated_diameter_min": 0.0378360645,
            "estimated_diameter_max": 0.0846040122
        },
        "feet": {
            "estimated_diameter_min": 199.7744887109,
            "estimated_diameter_max": 446.7093369279
        }
    },
    "is_potentially_hazardous_asteroid": false,
    "close_approach_data": [
        {
            "close_approach_date": "1982-01-05",
            "close_approach_date_full": "1982-Jan-05 06:37",
            "epoch_date_close_approach": 379060620000,
            "relative_velocity": {
                "kilometers_per_second": "16.5162912884",
                "kilometers_per_hour": "59458.648638209",
                "miles_per_hour": "36945.2919830027"
            },
            "miss_distance": {
                "astronomical": "0.4065590129",
                "lunar": "158.1514560181",
                "kilometers": "60820362.359142523",
                "miles": "37792020.7306838974"
            },
            "orbiting_body": "Earth"
        },
        {
            "close_approach_date": "1985-12-20",
            "close_approach_date_full": "1985-Dec-20 13:32",
            "epoch_date_close_approach": 503933520000,
            "relative_velocity": {
                "kilometers_per_second": "7.3467127728",
                "kilometers_per_hour": "26448.1659822379",
                "miles_per_hour": "16433.8618015745"
            },
            "miss_distance": {
                "astronomical": "0.0722517161",
                "lunar": "28.1059175629",
                "kilometers": "10808702.832404707",
                "miles": "6716216.5049586766"
            },
            "orbiting_body": "Mars"
        },
        {
            "close_approach_date": "1990-09-14",
            "close_approach_date_full": "1990-Sep-14 11:18",
            "epoch_date_close_approach": 653311080000,
            "relative_velocity": {
                "kilometers_per_second": "18.9768858363",
                "kilometers_per_hour": "68316.7890106829",
                "miles_per_hour": "42449.3959272213"
            },
            "miss_distance": {
                "astronomical": "0.4905985719",
                "lunar": "190.8428444691",
                "kilometers": "73392501.381281853",
                "miles": "45603985.6734134514"
            },
            "orbiting_body": "Earth"
        },
        {
            "close_approach_date": "1997-10-27",
            "close_approach_date_full": "1997-Oct-27 12:23",
            "epoch_date_close_approach": 877954980000,
            "relative_velocity": {
                "kilometers_per_second": "4.7183314542",
                "kilometers_per_hour": "16985.9932352951",
                "miles_per_hour": "10554.4356300088"
            },
            "miss_distance": {
                "astronomical": "0.0292960584",
                "lunar": "11.3961667176",
                "kilometers": "4382627.936035608",
                "miles": "2723238.7211950704"
            },
            "orbiting_body": "Earth"
        },
        {
            "close_approach_date": "2004-12-24",
            "close_approach_date_full": "2004-Dec-24 22:54",
            "epoch_date_close_approach": 1103928840000,
            "relative_velocity": {
                "kilometers_per_second": "10.6123365534",
                "kilometers_per_hour": "38204.411592146",
                "miles_per_hour": "23738.7356362421"
            },
            "miss_distance": {
                "astronomical": "0.2141027615",
                "lunar": "83.2859742235",
                "kilometers": "32029317.081518005",
                "miles": "19902094.762058269"
            },
            "orbiting_body": "Earth"
        }
    ],
    "orbital_data": {
        "orbit_id": "22",
        "orbit_determination_date": "2017-04-06 09:17:58",
        "first_observation_date": "1997-10-22",
        "last_observation_date": "1997-11-12",
        "data_arc_in_days": 21,
        "observations_used": 146,
        "orbit_uncertainty": "7",
        "minimum_orbit_intersection": ".018294",
        "jupiter_tisserand_invariant": "4.571",
        "epoch_osculation": "2459000.5",
        "eccentricity": ".3119897940337036",
        "semi_major_axis": "1.459226757352855",
        "inclination": "2.264077232947499",
        "ascending_node_longitude": "213.9625159199648",
        "orbital_period": "643.8468921938166",
        "perihelion_distance": "1.003962901877868",
        "perihelion_argument": "200.409661947371",
        "aphelion_distance": "1.914490612827841",
        "perihelion_time": "2459133.526406594672",
        "mean_anomaly": "285.6197289220343",
        "mean_motion": ".5591391437385855",
        "equinox": "J2000",
        "orbit_class": {
            "orbit_class_type": "APO",
            "orbit_class_description": "Near-Earth asteroid orbits which cross the Earth’s orbit similar to that of 1862 Apollo",
            "orbit_class_range": "a (semi-major axis) > 1.0 AU; q (perihelion) < 1.017 AU"
        }
    },
    "is_sentry_object": false
}